{
  "type": "FeatureCollection",
  "features": [
    {
      "type": "Feature",
      "properties": {
        "norad_id": 47012,
        "name": "FENGYUN 1C DEB",
        "group": "fengyun-1c-debris",
        "lat": 1.676276561814049,
        "lon": -144.60713991103236,
        "alt_km": 970.3722263447244,
        "timestamp": "2025-12-02T08:59:33.004999+00:00",
        "meta_object_name": "FENGYUN 1C DEB",
        "meta_object_id": "1999-025FAN",
        "meta_epoch": "2025-11-21T11:34:23.982528",
        "meta_mean_motion": 13.77887873,
        "meta_eccentricity": 0.01636388,
        "meta_inclination": 98.7555,
        "meta_ra_of_asc_node": 205.6016,
        "meta_arg_of_pericenter": 120.2349,
        "meta_mean_anomaly": 241.5118,
        "meta_ephemeris_type": 0,
        "meta_classification_type": "U",
        "meta_norad_cat_id": 47012,
        "meta_element_set_no": 999,
        "meta_rev_at_epoch": 54280,
        "meta_bstar": 0.00045664705,
        "meta_mean_motion_dot": 4.67e-06,
        "meta_mean_motion_ddot": 0,
        "tle_line1": "1 47012U 99025FAN 25325.48222202  .00000467  00000+0  45665-3 0  9993",
        "tle_line2": "2 47012  98.7555 205.6016 0163638 120.2349 241.5118 13.77887873542803"
      },
      "geometry": {
        "type": "Point",
        "coordinates": [
          -144.60713991103236,
          1.676276561814049
        ]
      }
    },
    {
      "type": "Feature",
      "properties": {
        "norad_id": 47013,
        "name": "FENGYUN 1C DEB",
        "group": "fengyun-1c-debris",
        "lat": -11.636429758175241,
        "lon": -134.68459725247024,
        "alt_km": 773.0542336492645,
        "timestamp": "2025-12-02T08:59:33.005010+00:00",
        "meta_object_name": "FENGYUN 1C DEB",
        "meta_object_id": "1999-025FAP",
        "meta_epoch": "2025-11-16T11:10:59.954016",
        "meta_mean_motion": 14.24672933,
        "meta_eccentricity": 0.00559466,
        "meta_inclination": 98.0819,
        "meta_ra_of_asc_node": 32.3431,
        "meta_arg_of_pericenter": 238.0397,
        "meta_mean_anomaly": 121.5338,
        "meta_ephemeris_type": 0,
        "meta_classification_type": "U",
        "meta_norad_cat_id": 47013,
        "meta_element_set_no": 999,
        "meta_rev_at_epoch": 72885,
        "meta_bstar": 0.0028202138,
        "meta_mean_motion_dot": 6.632e-05,
        "meta_mean_motion_ddot": 0,
        "tle_line1": "1 47013U 99025FAP 25320.46597169  .00006632  00000+0  28202-2 0  9991",
        "tle_line2": "2 47013  98.0819  32.3431 0055946 238.0397 121.5338 14.24672933728853"
      },
      "geometry": {
        "type": "Point",
        "coordinates": [
          -134.68459725247024,
          -11.636429758175241
        ]
      }
    },
    {
      "type": "Feature",
      "properties": {
        "norad_id": 47015,
        "name": "FENGYUN 1C DEB",
        "group": "fengyun-1c-debris",
        "lat": -42.793661939177326,
        "lon": -156.08076334108333,
        "alt_km": 585.3276432636421,
        "timestamp": "2025-12-02T08:59:33.005041+00:00",
        "meta_object_name": "FENGYUN 1C DEB",
        "meta_object_id": "1999-025FAR",
        "meta_epoch": "2025-11-27T21:25:01.629408",
        "meta_mean_motion": 14.86966411,
        "meta_eccentricity": 0.0176465,
        "meta_inclination": 98.7125,
        "meta_ra_of_asc_node": 27.1652,
        "meta_arg_of_pericenter": 160.0571,
        "meta_mean_anomaly": 200.7655,
        "meta_ephemeris_type": 0,
        "meta_classification_type": "U",
        "meta_norad_cat_id": 47015,
        "meta_element_set_no": 999,
        "meta_rev_at_epoch": 64161,
        "meta_bstar": 0.00089165,
        "meta_mean_motion_dot": 0.00010559,
        "meta_mean_motion_ddot": 0,
        "tle_line1": "1 47015U 99025FAR 25331.89237997  .00010559  00000+0  89165-3 0  9991",
        "tle_line2": "2 47015  98.7125  27.1652 0176465 160.0571 200.7655 14.86966411641612"
      },
      "geometry": {
        "type": "Point",
        "coordinates": [
          -156.08076334108333,
          -42.793661939177326
        ]
      }
    },
    {
      "type": "Feature",
      "properties": {
        "norad_id": 47025,
        "name": "FENGYUN 1C DEB",
        "group": "fengyun-1c-debris",
        "lat": -63.79750855271134,
        "lon": -158.90563832555378,
        "alt_km": 746.9855295810275,
        "timestamp": "2025-12-02T08:59:33.005055+00:00",
        "meta_object_name": "FENGYUN 1C DEB",
        "meta_object_id": "1999-025FBB",
        "meta_epoch": "2025-12-02T01:41:08.456928",
        "meta_mean_motion": 14.46038389,
        "meta_eccentricity": 0.0040571,
        "meta_inclination": 99.0334,
        "meta_ra_of_asc_node": 181.9095,
        "meta_arg_of_pericenter": 28.306,
        "meta_mean_anomaly": 122.9232,
        "meta_ephemeris_type": 0,
        "meta_classification_type": "U",
        "meta_norad_cat_id": 47025,
        "meta_element_set_no": 999,
        "meta_rev_at_epoch": 62587,
        "meta_bstar": 0.002314,
        "meta_mean_motion_dot": 8.293e-05,
        "meta_mean_motion_ddot": 0,
        "tle_line1": "1 47025U 99025FBB 25336.07023677  .00008293  00000+0  23140-2 0  9997",
        "tle_line2": "2 47025  99.0334 181.9095 0040571  28.3060 122.9232 14.46038389625872"
      },
      "geometry": {
        "type": "Point",
        "coordinates": [
          -158.90563832555378,
          -63.79750855271134
        ]
      }
    },
    {
      "type": "Feature",
      "properties": {
        "norad_id": 47036,
        "name": "FENGYUN 1C DEB",
        "group": "fengyun-1c-debris",
        "lat": 6.088558362888775,
        "lon": -159.043998861253,
        "alt_km": 809.8693143143673,
        "timestamp": "2025-12-02T08:59:33.005065+00:00",
        "meta_object_name": "FENGYUN 1C DEB",
        "meta_object_id": "1999-025FBN",
        "meta_epoch": "2025-11-28T09:15:13.426848",
        "meta_mean_motion": 14.15163144,
        "meta_eccentricity": 0.00686805,
        "meta_inclination": 98.724,
        "meta_ra_of_asc_node": 16.1165,
        "meta_arg_of_pericenter": 138.0391,
        "meta_mean_anomaly": 243.5901,
        "meta_ephemeris_type": 0,
        "meta_classification_type": "U",
        "meta_norad_cat_id": 47036,
        "meta_element_set_no": 999,
        "meta_rev_at_epoch": 59724,
        "meta_bstar": 0.00016733968,
        "meta_mean_motion_dot": 2.9e-06,
        "meta_mean_motion_ddot": 0,
        "tle_line1": "1 47036U 99025FBN 25332.38557207  .00000290  00000+0  16734-3 0  9991",
        "tle_line2": "2 47036  98.7240  16.1165 0068680 138.0391 243.5901 14.15163144597246"
      },
      "geometry": {
        "type": "Point",
        "coordinates": [
          -159.043998861253,
          6.088558362888775
        ]
      }
    },
    {
      "type": "Feature",
      "properties": {
        "norad_id": 47040,
        "name": "FENGYUN 1C DEB",
        "group": "fengyun-1c-debris",
        "lat": -74.09799645154959,
        "lon": -78.6351315108607,
        "alt_km": 836.1184409141224,
        "timestamp": "2025-12-02T08:59:33.005077+00:00",
        "meta_object_name": "FENGYUN 1C DEB",
        "meta_object_id": "1999-025FBS",
        "meta_epoch": "2025-12-01T11:09:52.930944",
        "meta_mean_motion": 14.06455951,
        "meta_eccentricity": 0.00631173,
        "meta_inclination": 100.2942,
        "meta_ra_of_asc_node": 240.695,
        "meta_arg_of_pericenter": 263.1866,
        "meta_mean_anomaly": 96.2113,
        "meta_ephemeris_type": 0,
        "meta_classification_type": "U",
        "meta_norad_cat_id": 47040,
        "meta_element_set_no": 999,
        "meta_rev_at_epoch": 88950,
        "meta_bstar": 0.00069483583,
        "meta_mean_motion_dot": 1.114e-05,
        "meta_mean_motion_ddot": 0,
        "tle_line1": "1 47040U 99025FBS 25335.46519596  .00001114  00000+0  69484-3 0  9993",
        "tle_line2": "2 47040 100.2942 240.6950 0063117 263.1866  96.2113 14.06455951889503"
      },
      "geometry": {
        "type": "Point",
        "coordinates": [
          -78.6351315108607,
          -74.09799645154959
        ]
      }
    },
    {
      "type": "Feature",
      "properties": {
        "norad_id": 47041,
        "name": "FENGYUN 1C DEB",
        "group": "fengyun-1c-debris",
        "lat": 67.07235067968476,
        "lon": -17.92579337107593,
        "alt_km": 550.4645041202275,
        "timestamp": "2025-12-02T08:59:33.005087+00:00",
        "meta_object_name": "FENGYUN 1C DEB",
        "meta_object_id": "1999-025FBT",
        "meta_epoch": "2025-12-01T20:42:35.125920",
        "meta_mean_motion": 15.06141345,
        "meta_eccentricity": 0.0014602,
        "meta_inclination": 98.2567,
        "meta_ra_of_asc_node": 1.6046,
        "meta_arg_of_pericenter": 224.2685,
        "meta_mean_anomaly": 311.1371,
        "meta_ephemeris_type": 0,
        "meta_classification_type": "U",
        "meta_norad_cat_id": 47041,
        "meta_element_set_no": 999,
        "meta_rev_at_epoch": 71025,
        "meta_bstar": 0.0019304,
        "meta_mean_motion_dot": 0.00028334,
        "meta_mean_motion_ddot": 0,
        "tle_line1": "1 47041U 99025FBT 25335.86290655  .00028334  00000+0  19304-2 0  9998",
        "tle_line2": "2 47041  98.2567   1.6046 0014602 224.2685 311.1371 15.06141345710256"
      },
      "geometry": {
        "type": "Point",
        "coordinates": [
          -17.92579337107593,
          67.07235067968476
        ]
      }
    }
  ]
}